NORAD_CAT_ID,OBJECT_NAME,OBJECT_TYPE,EPOCH,MEAN_MOTION,ECCENTRICITY,INCLINATION,RA_OF_ASC_NODE,ARG_OF_PERICENTER,MEAN_ANOMALY,BSTAR,MEAN_MOTION_DOT,MEAN_MOTION_DDOT,TLE_LINE0,TLE_LINE1,TLE_LINE2,SEMIMAJOR_AXIS,PERIOD,APOGEE,PERIGEE,DECAYED
52544.0,STARLINK-3944,PAYLOAD,2022-05-18 18:00:00,15.82192736,0.0001358,53.2185,269.3677,45.5886,293.5961,-0.0044415,-0.00846775,0.0,0 STARLINK-3944,1 52544U 22051M   22138.75001157 -.00846775  00000-0 -44415-2 0  9991,2 52544  53.2185 269.3677 0001358  45.5886 293.5961 15.82192736  1302,6702.378000000002,91.013,325.153,323.333,0.0
52544.0,STARLINK-3944,PAYLOAD,2022-05-19 06:00:00,15.81270836,0.0001306,53.2173,266.8587,43.8021,264.1539,-0.0048209,-0.00877026,0.0,0 STARLINK-3944,1 52544U 22051M   22139.25001157 -.00877026  00000-0 -48209-2 0  9995,2 52544  53.2173 266.8587 0001306  43.8021 264.1539 15.81270836  1375,6704.983,91.066,327.723,325.972,0.0
52544.0,STARLINK-3944,PAYLOAD,2022-05-19 14:00:01,15.80643597,0.0001594,53.2174,265.192,31.1074,15.1537,-0.0049802,-0.00879745,0.0,0 STARLINK-3944,1 52544U 22051M   22139.58335648 -.00879745  00000-0 -49802-2 0  9996,2 52544  53.2174 265.1920 0001594  31.1074  15.1537 15.80643597  1308,6706.755999999999,91.102,329.691,327.552,0.0
52544.0,STARLINK-3944,PAYLOAD,2022-05-19 22:00:00,15.80013798,0.0001325,53.2172,263.5251,48.5339,95.1466,-0.0051228,-0.00878918,0.0,0 STARLINK-3944,1 52544U 22051M   22139.91667824 -.00878918  00000-0 -51228-2 0  9993,2 52544  53.2172 263.5251 0001325  48.5339  95.1466 15.80013798  1306,6708.5390000000025,91.138,331.292,329.515,0.0
52544.0,STARLINK-3944,PAYLOAD,2022-05-20 04:00:00,15.79538728,0.0001513,53.2175,262.2743,38.2841,88.0155,-0.0051953999999999,-0.008728,0.0,0 STARLINK-3944,1 52544U 22051M   22140.16667824 -.00872800  00000-0 -51954-2 0  9992,2 52544  53.2175 262.2743 0001513  38.2841  88.0155 15.79538728  1527,6709.884,91.166,332.764,330.733,0.0
52544.0,STARLINK-3944,PAYLOAD,2022-05-20 14:00:01,15.78755038,0.0001806,53.2176,260.1956,26.5687,309.8128,-0.0054207,-0.00878135,0.0,0 STARLINK-3944,1 52544U 22051M   22140.58334491 -.00878135  00000-0 -54207-2 0  9990,2 52544  53.2176 260.1956 0001806  26.5687 309.8128 15.78755038  1308,6712.104,91.211,335.181,332.75699999999995,0.0
52544.0,STARLINK-3944,PAYLOAD,2022-05-20 22:00:00,15.78125126,0.000191,53.2171,258.533,23.2062,48.3919,-0.0055651,-0.00876326,0.0,0 STARLINK-3944,1 52544U 22051M   22140.91667824 -.00876326  00000-0 -55651-2 0  9990,2 52544  53.2171 258.5330 0001910  23.2062  48.3919 15.78125126  1646,6713.89,91.248,337.037,334.473,0.0
52544.0,STARLINK-3944,PAYLOAD,2022-05-21 06:00:00,15.77495782,0.0001764999999999,53.2172,256.8705,32.3836,133.6757,-0.0057287,-0.00876716,0.0,0 STARLINK-3944,1 52544U 22051M   22141.25001157 -.00876716  00000-0 -57287-2 0  9999,2 52544  53.2172 256.8705 0001765  32.3836 133.6757 15.77495782  1300,6715.676,91.284,338.726,336.355,0.0
52544.0,STARLINK-3944,PAYLOAD,2022-05-21 14:00:01,15.76866001,0.0001822,53.2173,255.2132,31.5444,228.2836,-0.0058878,-0.00876047,0.0,0 STARLINK-3944,1 52544U 22051M   22141.58335648 -.00876047  00000-0 -58878-2 0  9994,2 52544  53.2173 255.2132 0001822  31.5444 228.2836 15.76866001  1302,6717.4630000000025,91.32,340.552,338.105,0.0
52544.0,STARLINK-3944,PAYLOAD,2022-05-21 20:00:01,15.76394162,0.0001481,53.2172,253.97,41.8675,197.6757,-0.0060026,-0.00874544,0.0,0 STARLINK-3944,1 52544U 22051M   22141.83334491 -.00874544  00000-0 -60026-2 0  9995,2 52544  53.2172 253.9700 0001481  41.8675 197.6757 15.76394162  1785,6718.804,91.348,341.664,339.6740000000001,0.0
52544.0,STARLINK-3944,PAYLOAD,2022-05-21 22:00:00,15.76238015,0.0001375,53.2173,253.5552,37.298,315.4114,-0.0060632,-0.0087696,0.0,0 STARLINK-3944,1 52544U 22051M   22141.91667824 -.00876960  00000-0 -60632-2 0  9990,2 52544  53.2173 253.5552 0001375  37.2980 315.4114 15.76238015  1306,6719.248000000001,91.357,342.036,340.189,0.0
52544.0,STARLINK-3944,PAYLOAD,2022-05-22 14:00:01,15.74977735,0.0002277,53.2175,250.2447,22.5768,153.76,-0.0063883999999999,-0.00874531,0.0,0 STARLINK-3944,1 52544U 22051M   22142.58334491 -.00874531  00000-0 -63884-2 0  9999,2 52544  53.2175 250.2447 0002277  22.5768 153.7600 15.74977735  1904,6722.831999999999,91.43,346.227,343.166,0.0
52544.0,STARLINK-3944,PAYLOAD,2022-05-22 22:00:01,15.74350667,0.0001530999999999,53.2172,248.5909,39.7287,227.3523,-0.0065991,-0.00878211,0.0,0 STARLINK-3944,1 52544U 22051M   22142.91668981 -.00878211  00000-0 -65991-2 0  9990,2 52544  53.2172 248.5909 0001531  39.7287 227.3523 15.74350667  1307,6724.6169999999975,91.466,347.511,345.452,0.0
52544.0,STARLINK-3944,PAYLOAD,2022-05-23 14:00:01,15.7326864,0.0001859,53.2172,245.289,32.5391,53.5697,-0.0012603,-0.00174405,0.0,0 STARLINK-3944,1 52544U 22051M   22143.58334491 -.00174405  00000-0 -12603-2 0  9996,2 52544  53.2172 245.2890 0001859  32.5391  53.5697 15.73268640  1309,6727.699000000001,91.529,350.815,348.314,0.0
52544.0,STARLINK-3944,PAYLOAD,2022-05-23 16:00:00,15.73337207,0.0001801,53.2174,244.8766,34.9928,163.339,-0.0029862,-0.00402684,0.0,0 STARLINK-3944,1 52544U 22051M   22143.66667824 -.00402684  00000-0 -29862-2 0  9992,2 52544  53.2174 244.8766 0001801  34.9928 163.3390 15.73337207  2078,6727.504,91.525,350.581,348.157,0.0
52544.0,STARLINK-3944,PAYLOAD,2022-05-23 20:00:01,15.73021406,0.0001618,53.2178,244.053,39.1553,23.8362,-0.0027888,-0.00372344,0.0,0 STARLINK-3944,1 52544U 22051M   22143.83334491 -.00372344  00000-0 -27888-2 0  9997,2 52544  53.2178 244.0530 0001618  39.1553  23.8362 15.73021406  2104,6728.404,91.544,351.358,349.181,0.0
52544.0,STARLINK-3944,PAYLOAD,2022-05-23 22:00:01,15.73072697,0.0001531999999999,53.2177,243.6385,47.2076,127.9861,-0.0047646,-0.00618918,0.0,0 STARLINK-3944,1 52544U 22051M   22143.91668981 -.00618918  00000-0 -47646-2 0  9994,2 52544  53.2177 243.6385 0001532  47.2076 127.9861 15.73072697  1300,6728.2580000000025,91.541,351.154,349.092,0.0
52544.0,STARLINK-3944,PAYLOAD,2022-05-24 04:00:00,15.72778514,0.0001763,53.2172,242.3969,32.5155,119.0548,-0.006639,-0.00830228,0.0,0 STARLINK-3944,1 52544U 22051M   22144.16667824 -.00830228  00000-0 -66390-2 0  9994,2 52544  53.2172 242.3969 0001763  32.5155 119.0548 15.72778514  2158,6729.097,91.558,352.148,349.776,0.0
52544.0,STARLINK-3944,PAYLOAD,2022-05-24 12:30:38,15.72470122,0.0001959,53.2223,240.6616,22.946,337.1647,-0.0025245,-0.00330892,0.0,0 STARLINK-3944,1 52544U 22051M   22144.52127871 -.00330892  00000-0 -25245-2 0  9993,2 52544  53.2223 240.6616 0001959  22.9460 337.1647 15.72470122  2218,6729.977,91.576,353.16,350.523,0.0
52544.0,STARLINK-3944,PAYLOAD,2022-05-24 22:00:00,15.71438463,0.0001557,53.2172,238.687,33.845,44.8504,-0.0070278,-0.00829869,0.0,0 STARLINK-3944,1 52544U 22051M   22144.91667824 -.00829869  00000-0 -70278-2 0  9996,2 52544  53.2172 238.6870 0001557  33.8450  44.8504 15.71438463  2275,6732.922,91.636,355.835,353.73900000000015,0.0
52544.0,STARLINK-3944,PAYLOAD,2022-05-25 14:00:01,15.70247766,0.0002022,53.2173,235.3954,28.5251,222.3503,-0.0073992,-0.00830881,0.0,0 STARLINK-3944,1 52544U 22051M   22145.58334491 -.00830881  00000-0 -73992-2 0  9993,2 52544  53.2173 235.3954 0002022  28.5251 222.3503 15.70247766  1309,6736.325,91.705,359.552,356.82800000000015,0.0
52544.0,STARLINK-3944,PAYLOAD,2022-05-25 20:34:30,15.70040124,0.0002957,53.2223,234.0717,23.3824,336.7329,-0.0037897,-0.00442323,0.0,0 STARLINK-3944,1 52544U 22051M   22145.85729330 -.00442323  00000-0 -37897-2 0  9997,2 52544  53.2223 234.0717 0002957  23.3824 336.7329 15.70040124  2423,6736.919,91.717,360.776,356.792,0.0
52544.0,STARLINK-3944,PAYLOAD,2022-05-26 06:00:00,15.69054671,0.0001665999999999,53.2176,232.1066,30.7711,29.4237,-0.0077372,-0.00826837,0.0,0 STARLINK-3944,1 52544U 22051M   22146.25001157 -.00826837  00000-0 -77372-2 0  9990,2 52544  53.2176 232.1066 0001666  30.7711  29.4237 15.69054671  2489,6739.74,91.775,362.728,360.482,0.0
52544.0,STARLINK-3944,PAYLOAD,2022-05-26 11:51:38,15.68944967,0.0001431999999999,53.2223,230.9371,49.0566,311.0577,-0.003683,-0.00412064,0.0,0 STARLINK-3944,1 52544U 22051M   22146.49419746 -.00412064  00000-0 -36830-2 0  9990,2 52544  53.2223 230.9371 0001432  49.0566 311.0577 15.68944967  2526,6740.054,91.781,362.884,360.954,0.0
52544.0,STARLINK-3944,PAYLOAD,2022-05-26 13:23:23,15.68825914,0.0001330999999999,53.2223,230.6239,43.3926,316.7197,-0.0038133,-0.00423921,0.0,0 STARLINK-3944,1 52544U 22051M   22146.55791295 -.00423921  00000-0 -38133-2 0  9991,2 52544  53.2223 230.6239 0001331  43.3926 316.7197 15.68825914  2464,6740.395,91.788,363.157,361.36300000000006,0.0
52544.0,STARLINK-3944,PAYLOAD,2022-05-26 19:30:26,15.68521704,0.0002423,53.2222,229.3704,14.0826,346.0259,-0.002709,-0.00301989,0.0,0 STARLINK-3944,1 52544U 22051M   22146.81280459 -.00301989  00000-0 -27090-2 0  9994,2 52544  53.2222 229.3704 0002423  14.0826 346.0259 15.68521704  2579,6741.266,91.806,364.765,361.49800000000016,0.0
52544.0,STARLINK-3944,PAYLOAD,2022-05-26 21:02:13,15.68364098,0.0003149,53.2222,229.0574,6.5276,353.5782,-0.0031887,-0.00351084,0.0,0 STARLINK-3944,1 52544U 22051M   22146.87654493 -.00351084  00000-0 -31887-2 0  9993,2 52544  53.2222 229.0574 0003149   6.5276 353.5782 15.68364098  2511,6741.718000000003,91.815,365.706,361.46,0.0
52544.0,STARLINK-3944,PAYLOAD,2022-05-27 02:00:01,15.67563304,0.0001844,53.2177,228.0077,26.5621,61.2529,-0.0081785,-0.00822269,0.0,0 STARLINK-3944,1 52544U 22051M   22147.08334491 -.00822269  00000-0 -81785-2 0  9990,2 52544  53.2177 228.0077 0001844  26.5621  61.2529 15.67563304  2616,6744.014,91.862,367.122,364.635,0.0
52544.0,STARLINK-3944,PAYLOAD,2022-05-27 13:52:19,15.67168114,0.0002766,53.2222,225.6104,40.2765,319.8457,-0.0017248,-0.00184709,0.0,0 STARLINK-3944,1 52544U 22051M   22147.57800591 -.00184709  00000-0 -17248-2 0  9996,2 52544  53.2222 225.6104 0002766  40.2765 319.8457 15.67168114  2620,6745.147,91.885,368.878,365.147,0.0
